*******************************************************************************
 Revised: Feb 20, 2024        New Horizons Spacecraft                      -98
                          http://pluto.jhuapl.edu/index.php

 NOTE:
  The trajectory here now includes post Pluto-encounter spacecraft 
  reconstruction (documented as AAS 16-419, "New Horizons Orbit Determination
  Perfomance During Approach and Flyby of the Pluto System". Pelletier, et al.)

  That trajectory (od122) was later used along with satellite data through
  1965-2018 to re-estimate the Pluto system satellite solution, plu058.

  When objects -98 (spacecraft) or 2486958 (TNO target) are used as target  
  or coordinate centers, the trajectories listed below are used to derive 
  relative positions.

 Schedule overview:
  2006-Jan-19 ... launch (Atlas V551 1st stage, Centaur 2nd, STAR 48B 3rd
  2006-Jun-13 ... Approaches 2002 JF56 to within 102,000 km at 04:06 CT
  2007-Feb-28 ... Jupiter gravity assist (05:43 UTC, 2.3045(10)^6 km)
  2015-Jul-14 ... Pluto Charon encounter @ 11:49:57 UTC
  2016+       ... Kuiper Belt Object targeting 
  2019-Jan-1  ... Arrokoth (2014 MU69) flyby @ 05:33 UTC, 3500 km from center)
  
 Mission Objectives:
  * Map surface composition of Pluto and Charon
  * Characterize geology and morphology of Pluto and Charon
  * Characterize the neutral atmosphere of Pluto and its escape rate
  * Search for an atmosphere around Charon
  * Map surface temperatures on Pluto and Charon
  * Search for rings and additional satellites around Pluto
  * Conduct similar investigations of one or more Kuiper Belt Objects

 Spacecraft:
  1025 lbs (465 kg), 8 feet wide (2.5 m), RTG powered

 Concatenated spacecraft trajectory (from NH navigation):

 USAGE NOTES:

  1) To produce Horizons output relative to the Arrokoth (2014 MU69) 
     flight-project target trajectory, specify coordinate center 
     "@ 2486958" or "@ Arrokoth".
  2) The reconstructed post Arrokoth-flyby target-body trajectory solution 
     used is from "NavSBE_2014MU69_od159"

 File                                     Start              Stop
 ---------------------------------------- -----------------  -----------------
 nh_pred_20060119_20070101_od021          2006-Jan-19 19:52  2006-Dec-31 23:58
 nh_ref_20060119_20150925_v04             2007-Dec-31 23:58  2007-Mar-19 00:00
 98_pred_20070319_20150101_od070          2007-Mar-19 00:00  2012-May-01 13:47
 98_pred_20120501_20160913_od117          2012-May-01 13:47  2014-Dec-08 05:13
 nh_recon_pluto_od122_v01                 2014-Dec-08 05:13  2015-Sep-27 06:13
 nh_recon_arrokoth_od147_v01              2015-Sep-27 06:13  2019-Feb-07 00:00
 nh_pred_alleph_od151                     2019-Feb-07 00:00  2021-Sep-30 23:58
 98_pred_20211001_20300101_od159          2021-Sep-30 23:58  2030-Jan-01 11:56
*******************************************************************************


*******************************************************************************
Ephemeris / WWW_USER Sat Dec  7 21:10:22 2024 Pasadena, USA      / Horizons    
*******************************************************************************
Target body name: New Horizons (spacecraft) (-98) {source: NH_merged}
Center body name: Solar System Barycenter (0)     {source: DE441}
Center-site name: BODYCENTRIC
*******************************************************************************
Start time      : A.D. 2006-Jan-20 00:00:00.0000 UT      
Stop  time      : A.D. 2024-Jan-01 00:00:00.0000 UT      
Step-size       : 43200 minutes
*******************************************************************************
Target pole/equ : undefined
Target radii    : undefined                                                    
Center geodetic : 0.0, 0.0, 0.0                   {E-lon(deg),Lat(deg),Alt(km)}
Center cylindric: 0.0, 0.0, 0.0                   {E-lon(deg),Dxy(km),Dz(km)}
Center pole/equ : ICRF
Center radii    : undefined                                                    
Target primary  : Pluto
Vis. interferer : None
Rel. light bend : Sun                             {source: NH_merged}
Rel. lght bnd GM: 1.3271E+11 km^3/s^2                                          
Atmos refraction: NO (AIRLESS)
RA format       : DEG
Time format     : CAL 
Calendar mode   : Mixed Julian/Gregorian
EOP file        : eop.241206.p250304                                           
EOP coverage    : DATA-BASED 1962-JAN-20 TO 2024-DEC-06. PREDICTS-> 2025-MAR-03
Units conversion: 1 au= 149597870.700 km, c= 299792.458 km/s, 1 day= 86400.0 s 
Table cut-offs 1: Elevation (-90.0deg=NO ),Airmass     n.a.    , Daylight (NO )
Table cut-offs 2: Solar elongation (  0.0,180.0=NO ),Local Hour Angle( 0.0=NO )
Table cut-offs 3: RA/DEC angular rate (     0.0=NO )                           
*****************************************************************************************************************************************************************
 Date__(UT)__HR:MN     R.A.___(ICRF)___DEC  dRA*cosD d(DEC)/dt                r        rdot             delta      deldot  1-way_down_LT       VmagSn      VmagOb
*****************************************************************************************************************************************************************
$$SOE
 2013-Jun-12 00:00     282.95122 -21.03514  0.487237  0.055875   26.50310755389  14.7306845  26.5055302436537  14.7323175   220.43977316   14.9598255  14.9633962
 2013-Jul-12 00:00     283.05465 -21.02404  0.477910  0.055100   26.75817939221  14.7137623  26.7606261635952  14.7149182   222.56134123   14.9388272  14.9418981
 2013-Aug-11 00:00     283.15610 -21.01308  0.468847  0.054322   27.01295977705  14.6971717  27.0154227995176  14.6978939   224.68042024   14.9182816  14.9208969
 2013-Sep-10 00:00     283.25565 -21.00227  0.460023  0.053478   27.26745558250  14.6808723  27.2699274397534  14.6811782   226.79707079   14.8981350  14.9003128
 2013-Oct-10 00:00     283.35334 -20.99161  0.451657  0.052398   27.52167117412  14.6648351  27.5241448458277  14.6647336   228.91133248   14.8783481  14.8801057
 2013-Nov-09 00:00     283.44923 -20.98109  0.443896  0.051889   27.77561168336  14.6491291  27.7780796505723  14.6485531   231.02324386   14.8589852  14.8602634
 2013-Dec-09 00:00     283.54337 -20.97070  0.435801  0.051460   28.02928318477  14.6337657  28.0317363720015  14.6326301   233.13284248   14.8400703  14.8407759
 2014-Jan-08 00:00     283.63581 -20.96045  0.427924  0.050857   28.28269098048  14.6186735  28.2851194142704  14.6169486   235.24016498   14.8215325  14.8216240
 2014-Feb-07 00:00     283.72659 -20.95034  0.420295  0.050223   28.53583967096  14.6038516  28.5382330749550  14.6015319   237.34524711   14.8033678  14.8028265
 2014-Mar-09 00:00     283.81577 -20.94035  0.412890  0.049586   28.78873317848  14.5892018  28.7910815667551  14.5863449   239.44812389   14.7854793  14.7843460
 2014-Apr-08 00:00     283.90339 -20.93049  0.405695  0.048954   29.04137398001  14.5746838  29.0436689805907  14.5713917   241.54882936   14.7678087  14.7661833
 2014-May-08 00:00     283.98948 -20.92076  0.398698  0.048332   29.29376473204  14.5603505  29.2959993179392  14.5566667   243.64739678   14.7503957  14.7483300
 2014-Jun-07 00:00     284.07410 -20.91116  0.391889  0.047720   29.54590906215  14.5462300  29.5480764866187  14.5421646   245.74385867   14.7332699  14.7307779
 2014-Jul-07 00:00     284.15727 -20.90167  0.385262  0.047117   29.79781069079  14.5323420  29.7999043056735  14.5278804   247.83824677   14.7164450  14.7135194
 2014-Aug-06 00:00     284.23904 -20.89230  0.378839  0.046570   30.04948653234  14.5197205  30.0514989937307  14.5147992   249.93069599   14.7009789  14.6975580
 2014-Sep-05 00:00     284.31945 -20.88305  0.372552  0.045988   30.30093337363  14.5063371  30.3028563735556  14.5009360   252.02117157   14.6848109  14.6808632
 2014-Oct-05 00:00     284.39853 -20.87391  0.366427  0.045416   30.55214986638  14.4931262  30.5539753438318  14.4872761   254.10966436   14.6688901  14.6644404
 2014-Nov-04 00:00     284.47631 -20.86488  0.360457  0.044853   30.80313896943  14.4800926  30.8048593876585  14.4738149   256.19620333   14.6532142  14.6482823
 2014-Dec-04 00:00     284.55282 -20.85597  0.354638  0.044301   31.05390480387  14.4672107  31.0555130525611  14.4605486   258.28082630   14.6377566  14.6323829
 2015-Jan-03 00:00     284.62810 -20.84716  0.348964  0.043759   31.30444855561  14.4544957  31.3059382229836  14.4474677   260.36354893   14.6225224  14.6167313
 2015-Feb-02 00:00     284.70217 -20.83846  0.343432  0.043227   31.55477303872  14.4420100  31.5561374732751  14.4345693   262.44439264   14.6075745  14.6013229
 2015-Mar-04 00:00     284.77508 -20.82987  0.338034  0.042705   31.80488305119  14.4297217  31.8061148164934  14.4218475   264.52339081   14.5928891  14.5861491
 2015-Apr-03 00:00     284.84684 -20.82138  0.332777  0.042208   32.05476642802  14.4164835  32.0558580190465  14.4081787   266.60044169   14.5773392  14.5701073
 2015-May-03 00:00     284.91748 -20.81299  0.327637  0.041708   32.30443695026  14.4045072  32.3053809996950  14.3957852   268.67566104   14.5630918  14.5553729
 2015-Jun-02 00:00     284.98704 -20.80470  0.322621  0.041212   32.55390091749  14.3926191  32.5546908836933  14.3835727   270.74910812   14.5489942  14.5408727
 2015-Jul-02 00:00     285.05552 -20.79651  0.317696  0.040713   32.80315469350  14.3804844  32.8037858094204  14.3712052   272.82076745   14.5346724  14.5262447
 2015-Aug-01 00:00     285.12281 -20.78835  0.311596  0.040767   33.05217777196  14.3661690  33.0526462791319  14.3566767   274.89047686   14.5170727  14.5083653
 2015-Aug-31 00:00     285.18896 -20.78025  0.306942  0.040289   33.30098054866  14.3546532  33.3012828664743  14.3449589   276.95832430   14.5034882  14.4945227
 2015-Sep-30 00:00     285.25412 -20.77224  0.302396  0.039815   33.54958550248  14.3433391  33.5497178315180  14.3333995   279.02449490   14.4901433  14.4808846
 2015-Oct-30 00:00     285.31848 -20.76433  0.304416  0.038806   33.79801260232  14.3402000  33.7979699478510  14.3299332   281.08914480   14.4910911  14.4814702
